NORAD_CAT_ID,OBJECT_NAME,OBJECT_TYPE,EPOCH,MEAN_MOTION,ECCENTRICITY,INCLINATION,RA_OF_ASC_NODE,ARG_OF_PERICENTER,MEAN_ANOMALY,BSTAR,MEAN_MOTION_DOT,MEAN_MOTION_DDOT,TLE_LINE0,TLE_LINE1,TLE_LINE2,SEMIMAJOR_AXIS,PERIOD,APOGEE,PERIGEE,DECAYED
49425.0,STARLINK-3139,PAYLOAD,2022-05-26 22:00:00,15.08819195,0.0002027,53.2174,316.6306,35.1974,341.5326,0.00072315,0.00011233,0.0,0 STARLINK-3139,1 49425U 21104T   22146.91667824  .00011233  00000-0  72315-3 0  9991,2 49425  53.2174 316.6306 0002027  35.1974 341.5326 15.08819195  1308,6917.944,95.439,541.211,538.4069999999998,0.0
49425.0,STARLINK-3139,PAYLOAD,2022-05-27 06:00:00,15.08809546,0.0001817,53.2172,315.1325,37.7054,350.6059,0.0016949,0.00026767,0.0,0 STARLINK-3139,1 49425U 21104T   22147.25001157  .00026767  00000-0  16949-2 0  9998,2 49425  53.2172 315.1325 0001817  37.7054 350.6059 15.08809546 31018,6917.973000000001,95.439,541.095,538.581,0.0
49425.0,STARLINK-3139,PAYLOAD,2022-05-27 14:00:01,15.0884769,0.0001876,53.2173,313.6367,39.2057,0.6688,-0.0011682,-0.00018836,0.0,0 STARLINK-3139,1 49425U 21104T   22147.58334491 -.00018836  00000-0 -11682-2 0  9993,2 49425  53.2173 313.6367 0001876  39.2057   0.6688 15.08847690  1304,6917.857,95.437,541.02,538.424,0.0
49425.0,STARLINK-3139,PAYLOAD,2022-05-27 22:00:01,15.0882028,0.0002057,53.217,312.1414,35.0994,16.4354,0.0027924,0.0004441,0.0,0 STARLINK-3139,1 49425U 21104T   22147.91668981  .00044410  00000-0  27924-2 0  9995,2 49425  53.2170 312.1414 0002057  35.0994  16.4354 15.08820280  1305,6917.941,95.439,541.229,538.383,0.0
49425.0,STARLINK-3139,PAYLOAD,2022-05-28 14:00:01,15.0885501,0.0002042,53.2172,309.1473,41.9131,32.7494,-0.0010602,-0.00017129,0.0,0 STARLINK-3139,1 49425U 21104T   22148.58334491 -.00017129  00000-0 -10602-2 0  9999,2 49425  53.2172 309.1473 0002042  41.9131  32.7494 15.08855010 31219,6917.835,95.437,541.112,538.2869999999998,0.0
49425.0,STARLINK-3139,PAYLOAD,2022-05-28 22:00:00,15.08842988,0.0002182,53.217,307.6521,36.1916,50.0822,0.0016654,0.00026319,0.0,0 STARLINK-3139,1 49425U 21104T   22148.91667824  .00026319  00000-0  16654-2 0  9997,2 49425  53.2170 307.6521 0002182  36.1916  50.0822 15.08842988  1301,6917.871,95.437,541.246,538.227,0.0
49425.0,STARLINK-3139,PAYLOAD,2022-05-29 14:00:01,15.08869913,0.0002009,53.2175,304.658,38.0629,71.406,-0.0051999,-0.00082171,0.0,0 STARLINK-3139,1 49425U 21104T   22149.58334491 -.00082171  00000-0 -51999-2 0  9993,2 49425  53.2175 304.6580 0002009  38.0629  71.4060 15.08869913 31365,6917.7890000000025,95.436,541.044,538.264,0.0
49425.0,STARLINK-3139,PAYLOAD,2022-05-29 22:00:00,15.08811486,0.0002103,53.2174,303.1626,30.9782,90.0903,-0.000126,-2.291e-05,0.0,0 STARLINK-3139,1 49425U 21104T   22149.91667824 -.00002291  00000-0 -12600-3 0  9991,2 49425  53.2174 303.1626 0002103  30.9782  90.0903 15.08811486  1301,6917.968000000003,95.439,541.2869999999998,538.378,0.0
49425.0,STARLINK-3139,PAYLOAD,2022-05-30 06:00:00,15.08779823,0.0001881,53.2178,301.6645,33.4778,99.1652,0.0039842,0.00063588,0.0,0 STARLINK-3139,1 49425U 21104T   22150.25001157  .00063588  00000-0  39842-2 0  9991,2 49425  53.2178 301.6645 0001881  33.4778  99.1652 15.08779823 31463,6918.064,95.441,541.231,538.628,0.0
49425.0,STARLINK-3139,PAYLOAD,2022-05-30 14:00:01,15.088443599999998,0.0002048,53.2182,300.1690000000001,36.0307,108.1501,-2.9054e-06,-3.34e-06,0.0,0 STARLINK-3139,1 49425U 21104T   22150.58334491 -.00000334  00000-0 -29054-5 0  9996,2 49425  53.2182 300.1690 0002048  36.0307 108.1501 15.08844360  1308,6917.8669999999975,95.437,541.149,538.315,0.0
49425.0,STARLINK-3139,PAYLOAD,2022-05-30 22:00:00,15.08843743,0.0002167,53.218,298.6735,31.9479,123.8314,-0.00051954,-8.548e-05,0.0,0 STARLINK-3139,1 49425U 21104T   22150.91667824 -.00008548  00000-0 -51954-3 0  9999,2 49425  53.2180 298.6735 0002167  31.9479 123.8314 15.08843743 31564,6917.869000000002,95.437,541.2330000000002,538.235,0.0
49425.0,STARLINK-3139,PAYLOAD,2022-05-31 06:00:02,15.08806786,0.0001911,53.2185,297.1754,34.4104,133.0316,0.0028464,0.00045263,0.0,0 STARLINK-3139,1 49425U 21104T   22151.25002315  .00045263  00000-0  28464-2 0  9997,2 49425  53.2185 297.1754 0001911  34.4104 133.0316 15.08806786  1303,6917.982,95.44,541.169,538.525,0.0
49425.0,STARLINK-3139,PAYLOAD,2022-05-31 22:00:00,15.08840122,0.0002163,53.2184,294.1845,31.6228,158.9296,0.0016622,0.00026265,0.0,0 STARLINK-3139,1 49425U 21104T   22151.91667824  .00026265  00000-0  16622-2 0  9996,2 49425  53.2184 294.1845 0002163  31.6228 158.9296 15.08840122  1301,6917.88,95.438,541.241,538.249,0.0
49425.0,STARLINK-3139,PAYLOAD,2022-06-01 06:00:00,15.08834747,0.0001922,53.2186,292.6865,34.8333,167.3337,0.0030825,0.00049105,0.0,0 STARLINK-3139,1 49425U 21104T   22152.25001157  .00049105  00000-0  30825-2 0  9994,2 49425  53.2186 292.6865 0001922  34.8333 167.3337 15.08834747 31761,6917.896,95.438,541.091,538.432,0.0
49425.0,STARLINK-3139,PAYLOAD,2022-06-01 20:00:01,15.08829567,0.0002127,53.2185,290.0701,30.7358,101.7567,0.00079838,0.00012437,0.0,0 STARLINK-3139,1 49425U 21104T   22152.83334491  .00012437  00000-0  79838-3 0  9994,2 49425  53.2185 290.0701 0002127  30.7358 101.7567 15.08829567 31852,6917.9119999999975,95.438,541.249,538.306,0.0
49425.0,STARLINK-3139,PAYLOAD,2022-06-02 19:15:45,15.08829555,0.0001994,53.219,285.7176,37.7303,322.3829,-5.4138e-05,-1.149e-05,0.0,0 STARLINK-3139,1 49425U 21104T   22153.80260737 -.00001149  00000-0 -54138-4 0  9990,2 49425  53.2190 285.7176 0001994  37.7303 322.3829 15.08829555 31997,6917.9119999999975,95.438,541.1569999999998,538.398,0.0
49425.0,STARLINK-3139,PAYLOAD,2022-06-03 07:58:50,15.08837984,0.0002081,53.2191,283.3384,38.4844,321.6296,-7.6682e-05,-1.508e-05,0.0,0 STARLINK-3139,1 49425U 21104T   22154.33252576 -.00001508  00000-0 -76682-4 0  9998,2 49425  53.2191 283.3384 0002081  38.4844 321.6296 15.08837984 32074,6917.887,95.438,541.191,538.312,0.0
49425.0,STARLINK-3139,PAYLOAD,2022-06-03 19:06:31,15.08842221,0.0002109,53.2191,281.2571,40.3151,319.7997,-2.429300000000001e-05,-6.75e-06,0.0,0 STARLINK-3139,1 49425U 21104T   22154.79620184 -.00000675  00000-0 -24293-4 0  9997,2 49425  53.2191 281.2571 0002109  40.3151 319.7997 15.08842221 31078,6917.874,95.437,541.198,538.28,0.0
49425.0,STARLINK-3139,PAYLOAD,2022-06-04 12:35:46,15.08839878,0.0002116,53.2191,277.9863,38.7089,321.4055,0.00018274,2.621e-05,0.0,0 STARLINK-3139,1 49425U 21104T   22155.52483881  .00002621  00000-0  18274-3 0  9992,2 49425  53.2191 277.9863 0002116  38.7089 321.4055 15.08839878 31184,6917.880999999999,95.438,541.21,538.2819999999998,0.0
49425.0,STARLINK-3139,PAYLOAD,2022-06-05 22:00:00,15.08859102,0.0002166,53.2168,271.7403,33.6628,330.7952,-0.0013699,-0.00022036,0.0,0 STARLINK-3139,1 49425U 21104T   22156.91667824 -.00022036  00000-0 -13699-2 0  9996,2 49425  53.2168 271.7403 0002166  33.6628 330.7952 15.08859102 32472,6917.821999999999,95.436,541.185,538.189,0.0
49425.0,STARLINK-3139,PAYLOAD,2022-06-06 14:00:01,15.08872582,0.000221,53.2171,268.7479,35.3184,352.3541,-0.0034409,-0.00054685,0.0,0 STARLINK-3139,1 49425U 21104T   22157.58334491 -.00054685  00000-0 -34409-2 0  9998,2 49425  53.2171 268.7479 0002210  35.3184 352.3541 15.08872582 32573,6917.781,95.435,541.175,538.117,0.0
49425.0,STARLINK-3139,PAYLOAD,2022-06-06 20:00:01,15.08839844,0.0002212,53.2169,267.6257,31.905,274.4826,7.099e-05,8.42e-06,0.0,0 STARLINK-3139,1 49425U 21104T   22157.83334491  .00000842  00000-0  70990-4 0  9997,2 49425  53.2169 267.6257 0002212  31.9050 274.4826 15.08839844  1309,6917.880999999999,95.438,541.276,538.216,0.0
49425.0,STARLINK-3139,PAYLOAD,2022-06-07 01:00:24,15.0884587,0.0002076,53.219,266.6876,38.9836,321.1306,8.075399999999999e-05,9.97e-06,0.0,0 STARLINK-3139,1 49425U 21104T   22158.04194821  .00000997  00000-0  80754-4 0  9992,2 49425  53.2190 266.6876 0002076  38.9836 321.1306 15.08845870 32635,6917.861999999999,95.437,541.164,538.2909999999998,0.0
49425.0,STARLINK-3139,PAYLOAD,2022-06-07 13:43:29,15.08845677,0.0002077,53.219,264.3088,39.9357,320.1788,6.8612e-05,8.04e-06,0.0,0 STARLINK-3139,1 49425U 21104T   22158.57186689  .00000804  00000-0  68612-4 0  9999,2 49425  53.2190 264.3088 0002077  39.9357 320.1788 15.08845677 31643,6917.863,95.437,541.165,538.2909999999998,0.0
49425.0,STARLINK-3139,PAYLOAD,2022-06-08 13:34:16,15.08846058,0.0002149,53.2189,259.849,39.7948,320.3201,-2.3056e-06,-3.25e-06,0.0,0 STARLINK-3139,1 49425U 21104T   22159.56546417 -.00000325  00000-0 -23056-5 0  9992,2 49425  53.2189 259.8490 0002149  39.7948 320.3201 15.08846058 32862,6917.861999999999,95.437,541.214,538.24,0.0
49425.0,STARLINK-3139,PAYLOAD,2022-06-09 05:28:07,15.08835803,0.0002182,53.2189,256.878,37.4079,322.7065,-1.9173e-05,-5.93e-06,0.0,0 STARLINK-3139,1 49425U 21104T   22160.22786946 -.00000593  00000-0 -19173-4 0  9991,2 49425  53.2189 256.8780 0002182  37.4079 322.7065 15.08835803 32969,6917.893,95.438,541.268,538.249,0.0
49425.0,STARLINK-3139,PAYLOAD,2022-06-09 13:25:04,15.0882456,0.0002021,53.2183,255.3887,31.0817,329.0294,-0.00010189,-1.909e-05,0.0,0 STARLINK-3139,1 49425U 21104T   22160.55908141 -.00001909  00000-0 -10189-3 0  9999,2 49425  53.2183 255.3887 0002021  31.0817 329.0294 15.08824560 31946,6917.928000000001,95.439,541.191,538.394,0.0
49425.0,STARLINK-3139,PAYLOAD,2022-06-09 16:35:50,15.08828085,0.000214,53.2179,254.793,34.1051,326.0078,-0.00011634,-2.139e-05,0.0,0 STARLINK-3139,1 49425U 21104T   22160.69156063 -.00002139  00000-0 -11634-3 0  9994,2 49425  53.2179 254.7930 0002140  34.1051 326.0078 15.08828085 31964,6917.917,95.438,541.262,538.3009999999998,0.0
49425.0,STARLINK-3139,PAYLOAD,2022-06-10 06:54:18,15.08833335,0.0002035,53.2182,252.1169,33.0417,327.0702,-1.0172e-05,-4.5e-06,0.0,0 STARLINK-3139,1 49425U 21104T   22161.28771614 -.00000450  00000-0 -10172-4 0  9996,2 49425  53.2182 252.1169 0002035  33.0417 327.0702 15.08833335 33120,6917.901,95.438,541.174,538.3580000000002,0.0
